[{"OBJECT_NAME":"SAPPHIRE","OBJECT_ID":"2013-009C","EPOCH":"2026-03-09T22:57:28.647648","MEAN_MOTION":14.35209243,"ECCENTRICITY":0.00112275,"INCLINATION":98.4222,"RA_OF_ASC_NODE":250.7769,"ARG_OF_PERICENTER":178.7646,"MEAN_ANOMALY":181.357,"EPHEMERIS_TYPE":0,"CLASSIFICATION_TYPE":"U","NORAD_CAT_ID":39088,"ELEMENT_SET_NO":999,"REV_AT_EPOCH":68234,"BSTAR":9.3997997e-5,"MEAN_MOTION_DOT":2.26e-6,"MEAN_MOTION_DDOT":0},{"OBJECT_NAME":"FENGYUN 1C DEB","OBJECT_ID":"1999-025CSE","EPOCH":"2026-02-16T10:30:25.425792","MEAN_MOTION":14.38278102,"ECCENTRICITY":0.00662936,"INCLINATION":98.2693,"RA_OF_ASC_NODE":48.1096,"ARG_OF_PERICENTER":337.8454,"MEAN_ANOMALY":21.9872,"EPHEMERIS_TYPE":0,"CLASSIFICATION_TYPE":"U","NORAD_CAT_ID":32136,"ELEMENT_SET_NO":999,"REV_AT_EPOCH":66034,"BSTAR":0.00067652225,"MEAN_MOTION_DOT":2.068e-5,"MEAN_MOTION_DDOT":0}]
